ONEWEB-0144             
1 47290U 20100AJ  23059.51518407  .00000022  00000+0  24690-4 0  9993
2 47290  87.8937 229.9723 0001487 109.3182 250.8107 13.12444473106557
ONEWEB-0144             
1 47290U 20100AJ  23059.89636906 -.00000104  00000+0 -32487-3 0  9994
2 47290  87.8938 229.8965 0001497 109.6856 250.4434 13.12444407106609
ONEWEB-0144             
1 47290U 20100AJ  23059.97260605 -.00000121  00000+0 -37107-3 0  9995
2 47290  87.8938 229.8814 0001495 109.7729 250.3561 13.12444373106613
ONEWEB-0144             
1 47290U 20100AJ  23060.88745037 -.00000315  00000+0 -91137-3 0  9992
2 47290  87.8939 229.6996 0001515 110.1223 250.0069 13.12443849106731
ONEWEB-0144             
1 47290U 20100AJ  23061.49734590 -.00000317  00000+0 -91743-3 0  9997
2 47290  87.8942 229.5784 0001522 110.1129 250.0164 13.12444275106811
ONEWEB-0144             
1 47290U 20100AJ  23062.18345409  .00002449  00000+0  67693-2 0  9993
2 47290  87.8939 229.4421 0001133 125.5759 234.5475 13.12463401106905
ONEWEB-0144             
1 47290U 20100AJ  23062.41216524  .00002144  00000+0  59223-2 0  9996
2 47290  87.8941 229.3965 0001631 110.2876 249.8428 13.12464468106938
ONEWEB-0144             
1 47290U 20100AJ  23062.86957967  .00002319  00000+0  64057-2 0  9993
2 47290  87.8945 229.3055 0001900 110.5146 249.6186 13.12465904106995
